SARAL                   
1 39086U 13009A   22211.56956887  .00000004  00000+0  17805-4 0  9999
2 39086  98.5481  36.5677 0002101 114.9681 245.1721 14.32054373492651
GAOFEN 1                
1 39150U 13018A   22211.53348915  .00000270  00000+0  46278-4 0  9996
2 39150  98.0723 277.9179 0022894 141.9811 218.3015 14.76434830499092
VNREDSAT 1              
1 39160U 13021B   22211.45967703  .00000272  00000+0  62037-4 0  9997
2 39160  98.0771 285.9494 0001348  90.5522 269.5838 14.62988339492901
ARIRANG-5 (KOMPSAT-5)   
1 39227U 13042A   22211.62131028  .00000327  00000+0  27681-4 0  9993
2 39227  97.6298  36.7548 0000941  76.0637  10.5388 15.04505530490772
SKYSAT-A                
1 39418U 13066C   22211.53777448  .00001006  00000+0  85094-4 0  9990
2 39418  97.5487 282.0881 0026850 115.7504 244.6495 14.99958265475110
DUBAISAT-2              
1 39419U 13066D   22211.47705362  .00000327  00000+0  34719-4 0  9993
2 39419  97.4430 241.2984 0014550 129.3412 230.9104 14.95087880473623
GPM-CORE                
1 39574U 14009C   22211.56860570  .00008758  00000+0  13120-3 0  9994
2 39574  65.0015  41.5118 0009609 269.5081  90.4964 15.55525310478319
SENTINEL-1A             
1 39634U 14016A   22211.44768474 -.00000028  00000+0  38083-5 0  9996
2 39634  98.1828 218.3959 0001316  82.1337 278.0014 14.59197858443296
KAZEOSAT 1              
1 39731U 14024A   22211.50843196  .00000050  00000+0  28650-4 0  9997
2 39731  98.4631 286.6413 0001166  86.8082 273.3247 14.41978347434290
ALOS-2                  
1 39766U 14029A   22211.55463160  .00000043  00000+0  12684-4 0  9996
2 39766  97.9222 308.0653 0001487  88.6920 271.4446 14.79472081442003
KAZEOSAT 2              
1 40010U 14033A   22211.51700921  .00000195  00000+0  30972-4 0  9998
2 40010  97.7189  95.2201 0013535 301.7888  58.2004 14.82074373438822
HODOYOSHI-4             
1 40011U 14033B   22211.46836394  .00000408  00000+0  58018-4 0  9995
2 40011  97.6729  82.9144 0025261 298.8910  60.9768 14.81727082438460
DEIMOS-2                
1 40013U 14033D   22211.54753721  .00000518  00000+0  66261-4 0  9999
2 40013  97.7562 107.5738 0001598  38.9054 321.2274 14.85408269439597
HODOYOSHI-3             
1 40015U 14033F   22211.36535886  .00000165  00000+0  28846-4 0  9996
2 40015  97.6377  63.1961 0035844 325.0462  34.8397 14.78952155437659
SPOT 7                  
1 40053U 14034A   22211.51210663  .00000123  00000+0  36327-4 0  9996
2 40053  98.1703 278.2393 0001123  93.3684 266.7647 14.58561667430369
SKYSAT-B                
1 40072U 14037D   22211.45043553  .00000205  00000+0  33384-4 0  9996
2 40072  98.4039  82.0752 0006497 166.1787 193.9603 14.81765138435618
WORLDVIEW-3 (WV-3)      
1 40115U 14048A   22211.50091756  .00000250  00000+0  35599-4 0  9990
2 40115  97.8532 285.8127 0002583  71.0666 289.0828 14.84921214431500
GAOFEN 2                
1 40118U 14049A   22211.48630701  .00000396  00000+0  58062-4 0  9991
2 40118  97.7600 278.5513 0007140 159.1762 200.9744 14.80679712429465
YAOGAN 21               
1 40143U 14053A   22211.50286006  .00003162  00000+0  13382-3 0  9991
2 40143  97.3488 277.9524 0017374  76.7397  48.0011 15.23778770439108
YAOGAN 22               
1 40275U 14063A   22211.54367525 -.00000008  00000+0  10000-3 0  9999
2 40275 100.5730 331.9994 0006727 145.8756 214.2788 13.15441641373412
ASNARO                  
1 40298U 14070A   22211.49056891  .00003635  00000+0  17489-3 0  9993
2 40298  97.4676 293.1051 0000827  82.0280 334.8956 15.19414905428733
HODOYOSHI-1             
1 40299U 14070B   22211.46437406  .00002737  00000+0  10488-3 0  9990
2 40299  97.2418 278.3300 0011945 352.9965 135.3648 15.27293505429621
QSAT-EOS                
1 40301U 14070D   22211.43862426  .00010146  00000+0  28163-3 0  9997
2 40301  97.2066 278.0969 0018144 318.7822 155.2651 15.36926269430102
YAOGAN 23               
1 40305U 14071A   22211.50515726  .00003164  00000+0  14210-3 0  9998
2 40305  97.6084 163.4111 0001629  69.8511  66.3962 15.21922265427104
YAOGAN 24               
1 40310U 14072A   22211.55324862  .00000272  00000+0  46731-4 0  9990
2 40310  97.9801 331.4118 0018528 134.2735 225.9993 14.76180336414595
CBERS 4                 
1 40336U 14079A   22211.49160326  .00002996  00000+0  10568-2 0  9993
2 40336  98.4822 284.5952 0000810  69.5279 290.5939 14.35472595400582
RESURS P2               
1 40360U 14087A   22211.59314618  .00002889  00000+0  81946-4 0  9996
2 40360  97.2070 295.6443 0007590 299.8555 174.7102 15.37008541424889
YAOGAN 26               
1 40362U 14088A   22211.60420104  .00003188  00000+0  13535-3 0  9990
2 40362  97.1445 259.2971 0005309 317.7446 194.6523 15.23757231422599
SMAP                    
1 40376U 15003A   22211.51497251  .00000115  00000+0  31406-4 0  9995
2 40376  98.1240 217.7059 0002388  75.5629 284.5838 14.63399101400281
KOMPSAT-3A              
1 40536U 15014A   22211.62694892  .00001312  00000+0  80013-4 0  9995
2 40536  97.5322 153.6620 0005194 330.9207 201.9844 15.12087143405564
SENTINEL-2A             
1 40697U 15028A   22211.41041473 -.00000043  00000+0  39307-6 0  9999
2 40697  98.5675 285.5809 0001206  88.6058 271.5250 14.30821932370992
GAOFEN 8                
1 40701U 15030A   22211.52758284  .00003861  00000+0  16452-3 0  9998
2 40701  97.5661 346.4336 0001755  13.6820  56.4295 15.23572997394945
CARBONITE 1 (CBNT-1)    
1 40718U 15032D   22211.45986768  .00000526  00000+0  84345-4 0  9992
2 40718  97.7335  73.9309 0015251 233.6579 126.3220 14.75449470379769
YAOGAN 27               
1 40878U 15040A   22211.56975644 -.00000005  00000+0  10000-3 0  9990
2 40878 100.1274 241.5571 0007814 242.4481 117.5841 13.15979821332702
GAOFEN 9-01             
1 40894U 15047A   22211.50240850  .00000340  00000+0  55877-4 0  9996
2 40894  97.8156 280.4447 0034164  70.9830 289.5077 14.76291329370537
LAPAN-A2                
1 40931U 15052B   22211.33435548  .00000663  00000+0  31448-5 0  9992
2 40931   5.9998 223.2152 0012689  54.1795 305.9707 14.76836886369694
YAOGAN 28               
1 41026U 15064A   22211.47141531  .00002972  00000+0  12772-3 0  9994
2 41026  97.5592 354.5005 0005605 141.0485 304.9059 15.23464133374784
YAOGAN 29               
1 41038U 15069A   22211.45647467  .00000197  00000+0  32472-4 0  9996
2 41038  98.0564 211.8477 0001218  39.6131 320.5170 14.80895382360651
KENT RIDGE 1            
1 41167U 15077B   22211.47620882  .00001473  00000+0  48053-4 0  9992
2 41167  14.9811 255.3627 0011298 250.7886 146.4078 15.10157740365760
TELEOS 1                
1 41169U 15077D   22211.37589532  .00002741  00000+0  11220-3 0  9993
2 41169  14.9817 224.2569 0010108 308.2137  51.7221 15.13242275366035
GAOFEN 4                
1 41194U 15083A   22211.50507317 -.00000333  00000+0  00000+0 0  9990
2 41194   0.1103 268.7154 0004297 267.8971  59.0448  1.00272924 24307
JASON-3                 
1 41240U 16002A   22211.57410807 -.00000080  00000+0 -84355-4 0  9998
2 41240  66.0389 199.5086 0008432 267.7756  92.2293 12.80930098305432
SENTINEL-3A             
1 41335U 16011A   22211.54107612  .00000034  00000+0  32001-4 0  9995
2 41335  98.6206 278.2130 0001148  97.2726 262.8585 14.26737564335911
SENTINEL-1B             
1 41456U 16025A   22211.48148391 -.00000058  00000+0 -25246-5 0  9998
2 41456  98.1827 218.2542 0001362  84.8175 275.3173 14.59197800333467
ZIYUAN 3-2 (ZY 3-2)     
1 41556U 16033A   22211.54868804  .00002464  00000+0  11352-3 0  9995
2 41556  97.5342 280.2794 0004592 139.8954 330.9993 15.21235048342459
NUSAT-1 (FRESCO)        
1 41557U 16033B   22211.60156334  .00007381  00000+0  21545-3 0  9999
2 41557  97.3904 309.4015 0009759 215.8880 258.6605 15.35582969344006
NUSAT-2 (BATATA)        
1 41558U 16033C   22211.64059611  .00007222  00000+0  19862-3 0  9997
2 41558  97.4106 315.3824 0009513 203.4095 268.2877 15.37460272344287
CARTOSAT-2C             
1 41599U 16040A   22211.49072008  .00002037  00000+0  99768-4 0  9991
2 41599  97.4845 270.7113 0014418  38.2274  75.8467 15.19234144338467
SKYSAT-C1               
1 41601U 16040C   22211.48630254  .00004215  00000+0  11533-3 0  9990
2 41601  97.1536 285.7945 0001515 129.4579 230.6800 15.37880572340613
LAPAN-A3                
1 41603U 16040E   22211.61301337  .00000821  00000+0  40195-4 0  9990
2 41603  97.2039 246.7564 0013612  16.5723 141.6262 15.20777174338598
BIROS                   
1 41604U 16040F   22211.12486746  .00001811  00000+0  76117-4 0  9998
2 41604  97.2081 253.9272 0011157 351.1997   8.9044 15.24601234338966
GAOFEN 3                
1 41727U 16049A   22211.55193497  .00000002  00000+0  13722-4 0  9992
2 41727  98.4075 219.2265 0001368 110.7572 249.3765 14.42215026314308
SKYSAT-C4               
1 41771U 16058B   22211.51242851  .00004070  00000+0  11133-3 0  9998
2 41771  97.1166 275.5095 0000275 275.0114  85.1101 15.37904129327570
SKYSAT-C5               
1 41772U 16058C   22211.50500894  .00002226  00000+0  86917-4 0  9996
2 41772  97.2630 273.9024 0001917  86.7080 273.4378 15.26920494326348
SKYSAT-C2               
1 41773U 16058D   22211.49203836  .00004153  00000+0  11352-3 0  9992
2 41773  97.1179 275.8760 0002411 127.2921 232.8545 15.37918961327590
SKYSAT-C3               
1 41774U 16058E   22211.13210834  .00005247  00000+0  12752-3 0  9990
2 41774  97.1173 276.1400 0000881 138.8042 221.3272 15.41411551327577
ALSAT 1B                
1 41785U 16059C   22211.44530114  .00000181  00000+0  38069-4 0  9995
2 41785  97.9069 254.3991 0011176  90.4358 269.8134 14.70073959312133
PATHFINDER 1            
1 41787U 16059E   22211.06737488  .00000271  00000+0  60121-4 0  9992
2 41787  97.9101 253.2395 0031353  33.8097 326.5095 14.64057556311974
SCATSAT 1               
1 41790U 16059H   22211.09141915  .00000063  00000+0  27049-4 0  9994
2 41790  98.3173 254.5535 0006463  77.4773 282.7144 14.50907406309250
GOKTURK 1A              
1 41875U 16073A   22211.50672909  .00000163  00000+0  41010-4 0  9997
2 41875  98.1281 105.7599 0001317  78.8572 281.2767 14.62792313301578
